#dP2018 11 20  0  0  0.00000000      96 __u+U IGS08 FIT  IAC
## 2028 172800.00000000   900.00000000 58442 0.0000000000000
+   91   C01C02C03C04C05C06C07C08C09C10C12C13C14E01E02E03E04
+        E05E07E08E09E11E12E14E18E19E21E24E25E26E27E30E31G01
+        G02G03G04G05G06G07G08G09G10G11G12G13G14G15G16G17G19
+        G20G21G22G23G24G25G26G27G28G29G30G31G32J01J02J03J07
+        R01R02R03R04R05R07R08R09R10R11R13R14R15R16R17R18R19
+        R20R21R22R23R24R26  0  0  0  0  0  0  0  0  0  0  0
++        12 12 12 13 12  8  8  8  8  8  8  8  7  7  7  7  7
++         7  7  7  7  7  7  7  7  7  7  7  7  7  7  7  6  3
++         3  3  3  3  3  3  3  3  3  3  3  3  3  3  3  3  3
++         3  3  3  3  3  3  3  3  3  3  3  3  3 10 12 11 16
++         5  5  5  5  5  5  5  5  5  5  5  5  5  5  5  5  5
++         5  5  5  5  5  8  0  0  0  0  0  0  0  0  0  0  0
%c M  cc GPS ccc cccc cccc cccc cccc ccccc ccccc ccccc ccccc
%c cc cc ccc ccc cccc cccc cccc cccc ccccc ccccc ccccc ccccc
%f  1.2500000  1.025000000  0.00000000000  0.000000000000000
%f  0.0000000  0.000000000  0.00000000000  0.000000000000000
%i    0    0    0    0      0      0      0      0         0
%i    0    0    0    0      0      0      0      0         0
/* INFORMATION & ANALYSIS CENTER (IAC)            FINAL DATA
/* S/V CLOCKS ARE ALIGNED TO GPS & GLONASS TIME RESPECTIVELY
/* USING THE BROADCAST EPHEMERIS                            
/* PCV:IGS14_2022 OL/AL:FES2004  NONE     YN ORB:CoN CLK:CoN
*  2018 11 20 18 30  0.00000000
PC01 -32285.335224  27094.175753   1052.918086    -88.675027
PC02   4320.043611  41967.426077   -368.363564   -113.629869
PC03 -14871.763990  39431.621689    529.092344    -28.645562
PC04 -39583.951808  14511.385743    584.176828     -8.544878
PC05  21810.496074  36074.700941   -627.316300    117.928443
PC06 -12177.632051  21340.191861 -33982.705053     69.307648
PC07 -24520.472255  30021.899187  16140.904196   -144.300009
PC08 -10779.464662  37120.316893  17249.613252     38.202846
PC09   5757.251271  29217.380212 -29532.457684    300.492387
PC10  -9337.852052  30777.120763  27234.832438   -254.864801
PC12  16883.452470  21709.916096  -4966.585264    224.001115
PC13  -1713.118117  42161.509501   3070.211821   -387.342354
PC14  27802.149275    633.523388  -1909.359222    702.296626
PE01 -13534.463927  -9652.436247 -24483.084611   -482.120112
PE02  13570.459573   9626.190848  24487.761789     35.945769
PE03  23693.381324  15513.254627  -8639.261622   -101.887616
PE04 -27784.894512  -3089.752932  -9731.230075   -162.689653
PE05   5684.978277  18915.010163 -22052.227556    156.132093
PE07  15587.870640 -11237.964396  22517.316590    -79.006148
PE08  27784.568493   2862.957995   9813.716378   6459.018271
PE09 -15427.486593  11255.083939 -22613.029941   6611.947290
PE11  -9393.122705  20503.783461  19164.423731   5710.037570
PE12 -16714.890459   -833.845337  24420.140055   5541.467727
PE14 -18046.670093 -21814.997416  -2516.191284   6486.622088
PE18  24022.334403  11065.502718 -12276.354344   5741.591762
PE19 -22465.470138 -16211.941044  10425.506158    -10.490482
PE21   5748.492198 -21444.920588 -19574.089361   -505.458164
PE24 -21099.516561  20434.464685   3729.231802   6379.316325
PE25  -5759.818166  21453.546149  19573.190608   1977.563752
PE26  -3073.086726 -29290.958579  -2883.050945   5226.115314
PE27  21317.490238 -20300.120428  -3102.306086    586.484971
PE30  24555.585084  -7582.268888  14680.800130   5334.250319
PE31 -24361.582484   7273.815096 -15139.818501    978.772419
PG01 -13415.926363  18426.307504  13208.477963   -117.144439
PG02  14660.965874   3904.623216 -21226.912961    -64.062787
PG03 -20755.577076  13500.341998  -9557.765384    162.258203
PG04 -22951.635024 -13040.154364   4704.364594    -57.540215
PG05  25022.995518  -1551.494293  -9188.148861     -0.077844
PG06   8151.399267  18255.081506 -17444.144728    330.239339
PG07  -5611.813056  25695.331659    747.609990     84.956037
PG08 -19051.660423     79.281380  18625.769088   -122.864279
PG09   -933.552854  17899.756583 -19644.469718    490.750171
PG10  -7558.620497 -13466.555150  21664.471818    161.934963
PG11 -11690.068395  14393.599990  18544.558211   -697.731249
PG12  23552.217899 -10242.992478  -6585.688741    290.633048
PG13  20449.188805   8526.049907  14553.588196    -83.936556
PG14 -18545.793406 -19118.648048   -762.228193    -95.592299
PG15  17493.562329  -4774.947999  19279.760638   -339.118096
PG16 -24745.050068  -1444.754309 -10270.444857     -2.192898
PG17  13060.033755  21634.168467   8768.424454    -28.963959
PG19  18552.099612  18848.077641  -1899.844989   -381.801749
PG20   2674.352061 -17365.795119  19763.390006    518.948264
PG21   1156.711957 -26321.882562   4418.262345   -301.046055
PG22 -24265.454174  10611.027979  -1485.609510   -578.897180
PG23 -10526.539743  11307.704140 -21303.842770   -205.695838
PG24  14749.287135 -14256.562974  16567.517619    -58.429084
PG25  14482.505510 -15753.262214 -15756.457728   -679.680607
PG26 -18690.207561  -6897.433798 -17646.223809     45.016312
PG27 -22040.168511  -9714.582255  11410.543237    -20.771479
PG28   4127.945725  14438.099811  22534.276099    755.358735
PG29   3570.981649 -16178.202241 -20778.708838    332.099989
PG30   1807.557854  23986.526523  11088.577948     -7.718651
PG31  -9661.737097 -15673.176300 -18958.252547     78.355223
PG32 -15539.202659 -20516.649712   6805.680562   -349.774802
PJ01 -32358.187694  19357.709223 -14193.587785   -265.316231
PJ02 -25630.239095  32811.033889  -1951.251648     -0.806162
PJ03 -25591.055818  23049.072928  29461.418267      1.067908
PJ07 -25376.552389  33681.813175    -27.141187    246.220978
PR01  21050.111029   8785.356751 -11439.207399     35.260505
PR02  23988.608677    -94.532790   8626.620609    340.492230
PR03  11569.459300  -8326.563069  21173.516792    149.392451
PR04  -8092.994531 -11607.685465  21235.272449    284.470939
PR05 -22251.468534  -8159.996586   9461.439301     15.906912
PR07 -11208.250156   8430.270804 -21289.167172    -52.004584
PR08   7306.943854  11606.329577 -21462.148382     20.378228
PR09 -18258.898709  11895.266181 -13185.832001     39.676235
PR10 -15403.613849  20107.961858   2610.986741     36.097486
PR11  -3043.921763  17436.015279  18368.021046    -47.683484
PR13  17877.485792 -11652.817883  13966.601312    -17.041120
PR14  15294.431950 -20260.997170  -2551.684633     33.190804
PR15   6934.014228 -19177.832786 -15241.920906    -19.439564
PR16 -10001.673852  -5073.019364 -22931.462467    106.869715
PR17   3437.772438 -16317.651170 -19275.003289    181.768671
PR18  -6342.737439 -24168.346061  -5247.694196     27.371046
PR19 -12182.621791 -19050.100154  11797.727341    -61.687351
PR20 -11318.613535  -1360.694344  22831.778752   -359.729939
PR21  -3070.074193  16736.002457  19019.717532    -15.565422
PR22   7386.497893  24174.967074   2923.004663    -64.650315
PR23  13103.731500  15422.797483 -15536.987169    191.913069
PR24  10961.202169   -342.584812 -23052.419039   -173.991024
PR26 -11838.834217  -2853.302082  22420.939031      5.408302
EOF
